OBJECT_NAME,OBJECT_ID,EPOCH,MEAN_MOTION,ECCENTRICITY,INCLINATION,RA_OF_ASC_NODE,ARG_OF_PERICENTER,MEAN_ANOMALY,EPHEMERIS_TYPE,CLASSIFICATION_TYPE,NORAD_CAT_ID,ELEMENT_SET_NO,REV_AT_EPOCH,BSTAR,MEAN_MOTION_DOT,MEAN_MOTION_DDOT
SIRION PATHFINDER-2,2018-099B,2026-06-03T15:17:37.619808,15.14421424,.0008344,97.4255,204.0173,357.9385,2.1811,0,U,43759,999,41057,.29276E-3,.5317E-4,0
CORVUS BC4,2018-099K,2026-06-03T16:35:57.194016,15.12379699,.00095485,97.4068,198.0675,55.7800,304.4335,0,U,43767,999,41036,.2616225E-3,.4481E-4,0
M2 PATHFINDER,2020-037E,2026-06-03T17:54:48.909024,15.04610466,.00113086,97.8146,345.8262,193.0877,167.0057,0,U,45727,999,32347,.25084641E-3,.3463E-4,0
NETSAT-4,2020-068U,2026-06-03T13:50:19.818528,15.43386179,.00056992,97.8606,161.7287,30.7472,329.4107,0,U,46504,999,31367,.42675312E-3,.18989E-3,0
NETSAT-3,2020-068V,2026-06-03T13:44:11.895360,15.42183437,.00060677,97.8653,159.9578,46.7511,313.4240,0,U,46505,999,31358,.45992462E-3,.19667E-3,0
NETSAT-1,2020-068W,2026-06-03T12:09:18.183744,15.34296018,.00064563,97.8746,154.3780,68.9909,291.2022,0,U,46506,999,31320,.43777397E-3,.14469E-3,0
NETSAT-2,2020-068X,2026-06-03T13:40:59.490336,15.45384645,.00051933,97.8621,161.5679,62.6477,297.5299,0,U,46507,999,31363,.51556175E-3,.24586E-3,0
GREENCUBE (IO-117),2022-080E,2026-06-01T11:09:37.753056,6.42583280,.00088692,70.1435,303.7143,293.3663,66.6064,0,U,53109,999,9105,0,-.3E-7,0
SITRO-AIS 5 (KATYS),2023-091L,2026-06-04T04:19:14.298240,15.29142500,.0012514,97.5062,218.9583,143.7556,216.4534,0,U,57176,999,16235,.51909E-3,.14652E-3,0
SITRO-AIS 6 (CHIRKIN),2023-091AC,2026-06-04T01:31:35.441760,15.25671093,.0012731,97.5070,218.0290,147.2959,212.9070,0,U,57192,999,16228,.46513E-3,.11802E-3,0
SITRO-AIS 8 (ANOKHIN),2023-091AD,2026-06-04T03:42:05.745024,15.31766300,.0011702,97.5059,220.4686,139.9672,220.2434,0,U,57193,999,16245,.5312E-3,.16264E-3,0
SITRO-AIS 7 (FARTUSHNIY),2023-091AE,2026-06-04T03:06:45.578880,15.25367697,.0012561,97.5068,217.9269,148.0097,212.1906,0,U,57194,999,16228,.4758E-3,.11965E-3,0
SITRO-AIS 10 (BURDAEV),2023-091AK,2026-06-04T02:38:16.522080,15.38090582,.0007997,97.5082,225.3446,118.3858,241.8193,0,U,57199,999,16275,.59183E-3,.22163E-3,0
SITRO-AIS 9 (SHCHUKIN),2023-091AM,2026-06-04T01:36:42.007968,15.37617517,.0008209,97.5081,225.0409,118.6662,241.5408,0,U,57201,999,16273,.58331E-3,.2151E-3,0
SITRO-AIS 12 (SMIRENNIY),2023-091AQ,2026-06-04T04:34:08.572800,15.37912761,.0007849,97.5093,225.6260,113.3448,246.8623,0,U,57204,999,16277,.59582E-3,.22184E-3,0
SITRO-AIS 11 (SHEFFER),2023-091AU,2026-06-04T00:17:33.527040,15.38315620,.0007793,97.5091,225.6821,113.8409,246.3653,0,U,57208,999,16276,.608E-3,.22939E-3,0
SITRO-AIS 25,2024-039R,2026-06-04T04:15:05.160384,14.93435781,.014529,95.3910,226.1526,14.4055,346.1244,0,U,59066,999,12278,.29035E-3,.3722E-4,0
SITRO-AIS 26,2024-039S,2026-06-04T04:14:30.873408,14.93232636,.0145624,95.3910,226.0527,14.9729,345.5738,0,U,59067,999,12277,.26754E-3,.341E-4,0
SITRO-AIS 27,2024-039T,2026-06-04T05:13:22.973664,14.93652922,.0144634,95.3915,226.3464,13.5514,346.9530,0,U,59068,999,12280,.32564E-3,.4196E-4,0
SITRO-AIS 28,2024-039U,2026-06-04T04:41:19.300992,14.93684949,.0144452,95.3913,226.3777,13.4035,347.0963,0,U,59071,999,12280,.31335E-3,.4037E-4,0
GRBBETA,2024-128C,2026-06-03T21:06:39.763296,15.06538097,.0042441,61.9905,262.9523,131.9230,228.5494,0,U,60237,999,10426,.33246E-3,.4824E-4,0
OOV-CUBE (TUBSAT-30),2024-128F,2026-06-03T21:07:55.384032,15.02709877,.0046281,61.9958,271.9701,130.8013,229.7107,0,U,60240,999,10411,.23717E-3,.3041E-4,0
ROBUSTA-3A (MEDITERRANEE),2024-128J,2026-06-03T20:07:33.042432,15.11490826,.00432203,61.9869,255.4438,125.2822,235.2328,0,U,60243,999,10440,.55287341E-3,.9406E-4,0
LASARSAT,2024-247Q,2026-06-03T22:10:16.072032,15.45494859,.0008048,44.9754,336.7002,258.6055,101.3931,0,U,62391,999,8126,.75515E-3,.36882E-3,0
CROCUBE,2024-247T,2026-05-30T23:58:07.998816,15.46917883,.00073418,44.9730,356.3242,240.2660,119.7500,0,U,62394,999,8068,.86080924E-3,.44257E-3,0
FORESAIL-1 PRIME,2025-276DS,2026-06-03T21:13:29.893728,15.18574549,.0003556,97.4202,228.3996,131.6607,228.4932,0,U,66778,999,2838,.29269E-3,.5984E-4,0
KNACKSAT-2,1998-067XZ,2026-06-02T19:15:48.445056,15.58609395,.0010958,51.6300,6.7601,153.2067,206.9494,0,U,67683,999,1803,.58253104E-3,.45408E-3,0
