SIRION PATHFINDER-2     
1 43759U 18099B   26154.63724097  .00005317  00000+0  29276-3 0  9995
2 43759  97.4255 204.0173 0008344 357.9385   2.1811 15.14421424410576
CORVUS BC4              
1 43767U 18099K   26154.69163419  .00004481  00000+0  26162-3 0  9997
2 43767  97.4068 198.0675 0009548  55.7800 304.4335 15.12379699410368
M2 PATHFINDER           
1 45727U 20037E   26154.74639941  .00003463  00000+0  25085-3 0  9996
2 45727  97.8146 345.8262 0011308 193.0877 167.0057 15.04610466323478
NETSAT-4                
1 46504U 20068U   26154.57661827  .00018989  00000+0  42675-3 0  9996
2 46504  97.8606 161.7287 0005699  30.7472 329.4107 15.43386179313674
NETSAT-3                
1 46505U 20068V   26154.57235990  .00019667  00000+0  45992-3 0  9994
2 46505  97.8653 159.9578 0006067  46.7511 313.4240 15.42183437313582
NETSAT-1                
1 46506U 20068W   26154.50646046  .00014469  00000+0  43777-3 0  9990
2 46506  97.8746 154.3780 0006456  68.9909 291.2022 15.34296018313200
NETSAT-2                
1 46507U 20068X   26154.57013299  .00024586  00000+0  51556-3 0  9991
2 46507  97.8621 161.5679 0005193  62.6477 297.5299 15.45384645313636
GREENCUBE (IO-117)      
1 53109U 22080E   26152.46502029 -.00000003  00000+0  00000+0 0  9996
2 53109  70.1435 303.7143 0008869 293.3663  66.6064  6.42583280 91055
SITRO-AIS 5 (KATYS)     
1 57176U 23091L   26155.18002660  .00014652  00000+0  51909-3 0  9997
2 57176  97.5062 218.9583 0012514 143.7556 216.4534 15.29142500162358
SITRO-AIS 6 (CHIRKIN)   
1 57192U 23091AC  26155.06360465  .00011802  00000+0  46513-3 0  9991
2 57192  97.5070 218.0290 0012731 147.2959 212.9070 15.25671093162286
SITRO-AIS 8 (ANOKHIN)   
1 57193U 23091AD  26155.15423316  .00016264  00000+0  53120-3 0  9996
2 57193  97.5059 220.4686 0011702 139.9672 220.2434 15.31766300162455
SITRO-AIS 7 (FARTUSHNIY)
1 57194U 23091AE  26155.12969420  .00011965  00000+0  47580-3 0  9991
2 57194  97.5068 217.9269 0012561 148.0097 212.1906 15.25367697162284
SITRO-AIS 10 (BURDAEV)  
1 57199U 23091AK  26155.10991345  .00022163  00000+0  59183-3 0  9999
2 57199  97.5082 225.3446 0007997 118.3858 241.8193 15.38090582162756
SITRO-AIS 9 (SHCHUKIN)  
1 57201U 23091AM  26155.06715287  .00021510  00000+0  58331-3 0  9996
2 57201  97.5081 225.0409 0008209 118.6662 241.5408 15.37617517162734
SITRO-AIS 12 (SMIRENNIY)
1 57204U 23091AQ  26155.19037700  .00022184  00000+0  59582-3 0  9997
2 57204  97.5093 225.6260 0007849 113.3448 246.8623 15.37912761162774
SITRO-AIS 11 (SHEFFER)  
1 57208U 23091AU  26155.01219360  .00022939  00000+0  60800-3 0  9999
2 57208  97.5091 225.6821 0007793 113.8409 246.3653 15.38315620162768
SITRO-AIS 25            
1 59066U 24039R   26155.17714306  .00003722  00000+0  29035-3 0  9997
2 59066  95.3910 226.1526 0145290  14.4055 346.1244 14.93435781122788
SITRO-AIS 26            
1 59067U 24039S   26155.17674622  .00003410  00000+0  26754-3 0  9993
2 59067  95.3910 226.0527 0145624  14.9729 345.5738 14.93232636122777
SITRO-AIS 27            
1 59068U 24039T   26155.21762701  .00004196  00000+0  32564-3 0  9993
2 59068  95.3915 226.3464 0144634  13.5514 346.9530 14.93652922122806
SITRO-AIS 28            
1 59071U 24039U   26155.19536228  .00004037  00000+0  31335-3 0  9996
2 59071  95.3913 226.3777 0144452  13.4035 347.0963 14.93684949122806
GRBBETA                 
1 60237U 24128C   26154.87962689  .00004824  00000+0  33246-3 0  9996
2 60237  61.9905 262.9523 0042441 131.9230 228.5494 15.06538097104264
OOV-CUBE (TUBSAT-30)    
1 60240U 24128F   26154.88050213  .00003041  00000+0  23717-3 0  9994
2 60240  61.9958 271.9701 0046281 130.8013 229.7107 15.02709877104117
ROBUSTA-3A (MEDITERRAN*)
1 60243U 24128J   26154.83857688  .00009406  00000+0  55287-3 0  9991
2 60243  61.9869 255.4438 0043220 125.2822 235.2328 15.11490826104401
LASARSAT                
1 62391U 24247Q   26154.92379713  .00036882  00000+0  75515-3 0  9991
2 62391  44.9754 336.7002 0008048 258.6055 101.3931 15.45494859 81267
CROCUBE                 
1 62394U 24247T   26150.99870369  .00044257  00000+0  86081-3 0  9995
2 62394  44.9730 356.3242 0007341 240.2660 119.7500 15.46917883 80680
FORESAIL-1 PRIME        
1 66778U 25276DS  26154.88437377  .00005984  00000+0  29269-3 0  9997
2 66778  97.4202 228.3996 0003556 131.6607 228.4932 15.18574549 28382
KNACKSAT-2              
1 67683U 98067XZ  26153.80264404  .00045408  00000+0  58253-3 0  9991
2 67683  51.6300   6.7601 0010958 153.2067 206.9494 15.58609395 18031
